GSLV R/B                
1 54149U 22138AN  26061.83456019  .00004713  00000+0  40842-3 0  9995
2 54149  87.3885 168.6561 0021989 170.5085 189.6567 14.96713300182908
XRISM                   
1 57800U 23137A   26061.97065665  .00007377  00000+0  42017-3 0  9995
2 57800  31.0034 327.1198 0008207 330.7612  29.2567 15.11405488136775
ACS3                    
1 59588U 24077B   26061.80074937  .00019327  00000+0  15684-1 0  9994
2 59588  97.2116   4.4609 0054704  95.2616 265.4793 13.89238489 93244
SZ-21 MODULE            
1 66515U 25246C   26061.55898934  .00039531  00000+0  34908-3 0  9995
2 66515  41.4734 247.2373 0001469 286.7563  73.3117 15.67907744 16956
